{
  "type": "FeatureCollection",
  "features": [
    {
      "type": "Feature",
      "properties": {
        "norad_id": 40362,
        "name": "YAOGAN-26",
        "group": "resource",
        "lat": 60.3029663984673,
        "lon": -33.975660730888215,
        "alt_km": 438.9063386118287,
        "timestamp": "2025-12-03T13:52:09.222455+00:00",
        "meta_object_name": "YAOGAN-26",
        "meta_object_id": "2014-088A",
        "meta_epoch": "2025-12-03T07:21:44.272224",
        "meta_mean_motion": 15.38779588,
        "meta_eccentricity": 0.00073273,
        "meta_inclination": 97.0637,
        "meta_ra_of_asc_node": 338.3208,
        "meta_arg_of_pericenter": 55.4156,
        "meta_mean_anomaly": 304.7781,
        "meta_ephemeris_type": 0,
        "meta_classification_type": "U",
        "meta_norad_cat_id": 40362,
        "meta_element_set_no": 999,
        "meta_rev_at_epoch": 60749,
        "meta_bstar": 0.00062367042,
        "meta_mean_motion_dot": 0.00023897,
        "meta_mean_motion_ddot": 0,
        "tle_line1": "1 40362U 14088A   25337.30676241  .00023897  00000+0  62367-3 0  9990",
        "tle_line2": "2 40362  97.0637 338.3208 0007327  55.4156 304.7781 15.38779588607498"
      },
      "geometry": {
        "type": "Point",
        "coordinates": [
          -33.975660730888215,
          60.3029663984673
        ]
      }
    },
    {
      "type": "Feature",
      "properties": {
        "norad_id": 40376,
        "name": "SMAP",
        "group": "resource",
        "lat": -74.84678399842734,
        "lon": 14.290431859624915,
        "alt_km": 690.5926977991867,
        "timestamp": "2025-12-03T13:52:09.222466+00:00",
        "meta_object_name": "SMAP",
        "meta_object_id": "2015-003A",
        "meta_epoch": "2025-12-03T07:39:25.799904",
        "meta_mean_motion": 14.6332531,
        "meta_eccentricity": 0.00012146,
        "meta_inclination": 98.1292,
        "meta_ra_of_asc_node": 342.1788,
        "meta_arg_of_pericenter": 87.0889,
        "meta_mean_anomaly": 273.0452,
        "meta_ephemeris_type": 0,
        "meta_classification_type": "U",
        "meta_norad_cat_id": 40376,
        "meta_element_set_no": 999,
        "meta_rev_at_epoch": 57897,
        "meta_bstar": 0.00017566391,
        "meta_mean_motion_dot": 8.6e-06,
        "meta_mean_motion_ddot": 0,
        "tle_line1": "1 40376U 15003A   25337.31904861  .00000860  00000+0  17566-3 0  9992",
        "tle_line2": "2 40376  98.1292 342.1788 0001214  87.0889 273.0452 14.63325310578971"
      },
      "geometry": {
        "type": "Point",
        "coordinates": [
          14.290431859624915,
          -74.84678399842734
        ]
      }
    },
    {
      "type": "Feature",
      "properties": {
        "norad_id": 40536,
        "name": "KOMPSAT-3A",
        "group": "resource",
        "lat": -28.213024020751263,
        "lon": 127.2724528460301,
        "alt_km": 440.7071312660282,
        "timestamp": "2025-12-03T13:52:09.222476+00:00",
        "meta_object_name": "KOMPSAT-3A",
        "meta_object_id": "2015-014A",
        "meta_epoch": "2025-12-03T08:18:05.080032",
        "meta_mean_motion": 15.43418385,
        "meta_eccentricity": 0.00037671,
        "meta_inclination": 97.6772,
        "meta_ra_of_asc_node": 311.178,
        "meta_arg_of_pericenter": 147.4817,
        "meta_mean_anomaly": 212.6662,
        "meta_ephemeris_type": 0,
        "meta_classification_type": "U",
        "meta_norad_cat_id": 40536,
        "meta_element_set_no": 999,
        "meta_rev_at_epoch": 59150,
        "meta_bstar": 0.0005572617,
        "meta_mean_motion_dot": 0.00024867,
        "meta_mean_motion_ddot": 0,
        "tle_line1": "1 40536U 15014A   25337.34589213  .00024867  00000+0  55726-3 0  9998",
        "tle_line2": "2 40536  97.6772 311.1780 0003767 147.4817 212.6662 15.43418385591501"
      },
      "geometry": {
        "type": "Point",
        "coordinates": [
          127.2724528460301,
          -28.213024020751263
        ]
      }
    },
    {
      "type": "Feature",
      "properties": {
        "norad_id": 40697,
        "name": "SENTINEL-2A",
        "group": "resource",
        "lat": 37.57850486883083,
        "lon": -123.09516527374089,
        "alt_km": 785.7266840166794,
        "timestamp": "2025-12-03T13:52:09.222487+00:00",
        "meta_object_name": "SENTINEL-2A",
        "meta_object_id": "2015-028A",
        "meta_epoch": "2025-12-03T08:10:25.303296",
        "meta_mean_motion": 14.3082125,
        "meta_eccentricity": 0.00010384,
        "meta_inclination": 98.5703,
        "meta_ra_of_asc_node": 50.0071,
        "meta_arg_of_pericenter": 93.7749,
        "meta_mean_anomaly": 266.3553,
        "meta_ephemeris_type": 0,
        "meta_classification_type": "U",
        "meta_norad_cat_id": 40697,
        "meta_element_set_no": 999,
        "meta_rev_at_epoch": 54572,
        "meta_bstar": 0.00011436195,
        "meta_mean_motion_dot": 2.56e-06,
        "meta_mean_motion_ddot": 0,
        "tle_line1": "1 40697U 15028A   25337.34057064  .00000256  00000+0  11436-3 0  9991",
        "tle_line2": "2 40697  98.5703  50.0071 0001038  93.7749 266.3553 14.30821250545723"
      },
      "geometry": {
        "type": "Point",
        "coordinates": [
          -123.09516527374089,
          37.57850486883083
        ]
      }
    },
    {
      "type": "Feature",
      "properties": {
        "norad_id": 40701,
        "name": "GAOFEN-8",
        "group": "resource",
        "lat": -67.75573821105307,
        "lon": -44.01835581547778,
        "alt_km": 457.6206729840151,
        "timestamp": "2025-12-03T13:52:09.222497+00:00",
        "meta_object_name": "GAOFEN-8",
        "meta_object_id": "2015-030A",
        "meta_epoch": "2025-12-03T08:06:21.878208",
        "meta_mean_motion": 15.38046066,
        "meta_eccentricity": 0.00111818,
        "meta_inclination": 97.6906,
        "meta_ra_of_asc_node": 155.0235,
        "meta_arg_of_pericenter": 171.1864,
        "meta_mean_anomaly": 188.9579,
        "meta_ephemeris_type": 0,
        "meta_classification_type": "U",
        "meta_norad_cat_id": 40701,
        "meta_element_set_no": 999,
        "meta_rev_at_epoch": 58126,
        "meta_bstar": 0.00064936922,
        "meta_mean_motion_dot": 0.0002432,
        "meta_mean_motion_ddot": 0,
        "tle_line1": "1 40701U 15030A   25337.33775322  .00024320  00000+0  64937-3 0  9995",
        "tle_line2": "2 40701  97.6906 155.0235 0011181 171.1864 188.9579 15.38046066581260"
      },
      "geometry": {
        "type": "Point",
        "coordinates": [
          -44.01835581547778,
          -67.75573821105307
        ]
      }
    },
    {
      "type": "Feature",
      "properties": {
        "norad_id": 40718,
        "name": "CARBONITE 1 (CBNT-1)",
        "group": "resource",
        "lat": -31.41797725666063,
        "lon": -25.677533002284395,
        "alt_km": 617.2972129320551,
        "timestamp": "2025-12-03T13:52:09.222507+00:00",
        "meta_object_name": "CARBONITE 1 (CBNT-1)",
        "meta_object_id": "2015-032D",
        "meta_epoch": "2025-12-03T08:03:29.385792",
        "meta_mean_motion": 14.82670639,
        "meta_eccentricity": 0.00138352,
        "meta_inclination": 97.64,
        "meta_ra_of_asc_node": 158.7942,
        "meta_arg_of_pericenter": 213.258,
        "meta_mean_anomaly": 146.7766,
        "meta_ephemeris_type": 0,
        "meta_classification_type": "U",
        "meta_norad_cat_id": 40718,
        "meta_element_set_no": 999,
        "meta_rev_at_epoch": 56031,
        "meta_bstar": 0.00045555172,
        "meta_mean_motion_dot": 3.629e-05,
        "meta_mean_motion_ddot": 0,
        "tle_line1": "1 40718U 15032D   25337.33575678  .00003629  00000+0  45555-3 0  9991",
        "tle_line2": "2 40718  97.6400 158.7942 0013835 213.2580 146.7766 14.82670639560313"
      },
      "geometry": {
        "type": "Point",
        "coordinates": [
          -25.677533002284395,
          -31.41797725666063
        ]
      }
    },
    {
      "type": "Feature",
      "properties": {
        "norad_id": 40878,
        "name": "YAOGAN-27",
        "group": "resource",
        "lat": -2.4619627249082328,
        "lon": -31.948309191180186,
        "alt_km": 1198.9413632897722,
        "timestamp": "2025-12-03T13:52:09.222518+00:00",
        "meta_object_name": "YAOGAN-27",
        "meta_object_id": "2015-040A",
        "meta_epoch": "2025-12-03T08:24:30.061152",
        "meta_mean_motion": 13.16059648,
        "meta_eccentricity": 0.00077419,
        "meta_inclination": 100.1004,
        "meta_ra_of_asc_node": 327.3954,
        "meta_arg_of_pericenter": 309.863,
        "meta_mean_anomaly": 50.1803,
        "meta_ephemeris_type": 0,
        "meta_classification_type": "U",
        "meta_norad_cat_id": 40878,
        "meta_element_set_no": 999,
        "meta_rev_at_epoch": 49190,
        "meta_bstar": 4.2044395e-05,
        "meta_mean_motion_dot": -2.6e-07,
        "meta_mean_motion_ddot": 0,
        "tle_line1": "1 40878U 15040A   25337.35034793 -.00000026  00000+0  42044-4 0  9997",
        "tle_line2": "2 40878 100.1004 327.3954 0007741 309.8630  50.1803 13.16059648491909"
      },
      "geometry": {
        "type": "Point",
        "coordinates": [
          -31.948309191180186,
          -2.4619627249082328
        ]
      }
    }
  ]
}